{
  "type": "FeatureCollection",
  "features": [
    {"type":"Feature","properties":{"address":"2860 WEST 23RD STREET","borough":"BROOKLYN","psa":"POLICE SERVICE AREA #1","zipcode":"11224"},"geometry":{"type":"Point","coordinates":[-73.99033262283454,40.5769455860406]}},{"type":"Feature","properties":{"address":"80 DWIGHT STREET","borough":"BROOKLYN","psa":"POLICE SERVICE AREA #1 SATELLITE","zipcode":"11231"},"geometry":{"type":"Point","coordinates":[-74.00884978181097,40.676281335424854]}},{"type":"Feature","properties":{"address":"106-09 FLATLANDS AVENUE","borough":"BROOKLYN","psa":"POLICE SERVICE AREA #1 SATELLITE","zipcode":"11236"},"geometry":{"type":"Point","coordinates":[-73.89354901006145,40.64839797465251]}},{"type":"Feature","properties":{"address":"560 SUTTER AVENUE","borough":"BROOKLYN","psa":"POLICE SERVICE AREA #2","zipcode":"11207"},"geometry":{"type":"Point","coordinates":[-73.8982662469963,40.668850491453505]}},{"type":"Feature","properties":{"address":"25 CENTRAL AVENUE","borough":"BROOKLYN","psa":"POLICE SERVICE AREA #3","zipcode":"11206"},"geometry":{"type":"Point","coordinates":[-73.93245118227533,40.70232141239177]}},{"type":"Feature","properties":{"address":"4 AUBURN PLACE","borough":"BROOKLYN","psa":"POLICE SERVICE AREA #3 SATELLITE","zipcode":"11205"},"geometry":{"type":"Point","coordinates":[-73.97722447163565,40.69423898779587]}},{"type":"Feature","properties":{"address":"130 AVENUE C","borough":"MANHATTAN","psa":"POLICE SERVICE AREA #4","zipcode":"10009"},"geometry":{"type":"Point","coordinates":[-73.97821878895007,40.724816963252145]}},{"type":"Feature","properties":{"address":"221 EAST 123RD STREET","borough":"MANHATTAN","psa":"POLICE SERVICE AREA #5","zipcode":"10035"},"geometry":{"type":"Point","coordinates":[-73.93621227544439,40.80223956194741]}},{"type":"Feature","properties":{"address":"2770 F DOUGLASS BOULEVARD","borough":"MANHATTAN","psa":"POLICE SERVICE AREA #6","zipcode":"10039"},"geometry":{"type":"Point","coordinates":[-73.94083621481255,40.824176456381316]}},{"type":"Feature","properties":{"address":"737 MELROSE AVENUE","borough":"BRONX","psa":"POLICE SERVICE AREA #7","zipcode":"10455"},"geometry":{"type":"Point","coordinates":[-73.9157037952378,40.82082615134874]}},{"type":"Feature","properties":{"address":"2794 RANDALL AVENUE","borough":"BRONX","psa":"POLICE SERVICE AREA #8","zipcode":"10465"},"geometry":{"type":"Point","coordinates":[-73.82557436074568,40.82422560890512]}},{"type":"Feature","properties":{"address":"1165 EAST 229TH STREET","borough":"BRONX","psa":"POLICE SERVICE AREA #8 SATELLITE","zipcode":"10466"},"geometry":{"type":"Point","coordinates":[-73.84411219713301,40.886436933209765]}},{"type":"Feature","properties":{"address":"155-09 JEWEL AVENUE","borough":"QUEENS","psa":"POLICE SERVICE AREA #9","zipcode":"11367"},"geometry":{"type":"Point","coordinates":[-73.81303473776904,40.73263297209244]}},{"type":"Feature","properties":{"address":"34-41 21ST STREET","borough":"QUEENS","psa":"POLICE SERVICE AREA #9 SATELLITE","zipcode":"11106"},"geometry":{"type":"Point","coordinates":[-73.93484755646462,40.76153301603693]}},{"type":"Feature","properties":{"address":"349 BEACH 54TH STREET","borough":"QUEENS","psa":"POLICE SERVICE AREA #9 SATELLITE/FAR ROCKAWAY","zipcode":"11692"},"geometry":{"type":"Point","coordinates":[-73.78460456697525,40.59400413729908]}},{"type":"Feature","properties":{"address":"154 LAMPORT BOULEVARD","borough":"STATEN ISLAND","psa":"POLICE SERVICE AREA SATELLITE/STATEN ISLAND HOUSING UNIT","zipcode":"10305"},"geometry":{"type":"Point","coordinates":[-74.07764513863239,40.59468755190394]}}]
}